{
    "links": {
        "self": "http://www.neowsapp.com/rest/v1/neo/3726514?api_key=iIulBulltgU6a56xZRHN4H3l9WmuAYTsLGpBGhQ2"
    },
    "id": "3726514",
    "neo_reference_id": "3726514",
    "name": "(2015 QP3)",
    "designation": "2015 QP3",
    "nasa_jpl_url": "http://ssd.jpl.nasa.gov/sbdb.cgi?sstr=3726514",
    "absolute_magnitude_h": 24.3,
    "estimated_diameter": {
        "kilometers": {
            "estimated_diameter_min": 0.0366906138,
            "estimated_diameter_max": 0.0820427065
        },
        "meters": {
            "estimated_diameter_min": 36.6906137531,
            "estimated_diameter_max": 82.0427064882
        },
        "miles": {
            "estimated_diameter_min": 0.0227984834,
            "estimated_diameter_max": 0.0509789586
        },
        "feet": {
            "estimated_diameter_min": 120.3760332259,
            "estimated_diameter_max": 269.1689931548
        }
    },
    "is_potentially_hazardous_asteroid": false,
    "close_approach_data": [
        {
            "close_approach_date": "2015-08-30",
            "close_approach_date_full": "2015-Aug-30 01:24",
            "epoch_date_close_approach": 1440897840000,
            "relative_velocity": {
                "kilometers_per_second": "9.2870850491",
                "kilometers_per_hour": "33433.5061768429",
                "miles_per_hour": "20774.2805463833"
            },
            "miss_distance": {
                "astronomical": "0.0605100859",
                "lunar": "23.5384234151",
                "kilometers": "9052179.964157033",
                "miles": "5624763.8059637354"
            },
            "orbiting_body": "Earth"
        },
        {
            "close_approach_date": "2132-09-02",
            "close_approach_date_full": "2132-Sep-02 18:01",
            "epoch_date_close_approach": 5133434460000,
            "relative_velocity": {
                "kilometers_per_second": "8.7315644363",
                "kilometers_per_hour": "31433.6319707304",
                "miles_per_hour": "19531.6364875908"
            },
            "miss_distance": {
                "astronomical": "0.0724475418",
                "lunar": "28.1820937602",
                "kilometers": "10837997.940015966",
                "miles": "6734419.6407376908"
            },
            "orbiting_body": "Earth"
        }
    ],
    "orbital_data": {
        "orbit_id": "14",
        "orbit_determination_date": "2017-04-06 08:32:19",
        "first_observation_date": "2015-08-20",
        "last_observation_date": "2015-09-04",
        "data_arc_in_days": 15,
        "observations_used": 63,
        "orbit_uncertainty": "8",
        "minimum_orbit_intersection": ".0592729",
        "jupiter_tisserand_invariant": "4.559",
        "epoch_osculation": "2457257.5",
        "eccentricity": ".2911746363295737",
        "semi_major_axis": "1.452411736343206",
        "inclination": "14.90444526757705",
        "ascending_node_longitude": "332.0046215031176",
        "orbital_period": "639.3417291366982",
        "perihelion_distance": "1.029506277212668",
        "perihelion_argument": "36.16919496533237",
        "aphelion_distance": "1.875317195473743",
        "perihelion_time": "2457294.234736921063",
        "mean_anomaly": "339.3154354097304",
        "mean_motion": ".5630791540638326",
        "equinox": "J2000",
        "orbit_class": {
            "orbit_class_type": "AMO",
            "orbit_class_description": "Near-Earth asteroid orbits similar to that of 1221 Amor",
            "orbit_class_range": "1.017 AU < q (perihelion) < 1.3 AU"
        }
    },
    "is_sentry_object": false
}